[{"OBJECT_NAME":"STARLINK-5205","OBJECT_ID":"2022-141AX","EPOCH":"2026-03-09T18:21:18.234432","MEAN_MOTION":15.08837111,"ECCENTRICITY":0.00016105,"INCLINATION":53.2213,"RA_OF_ASC_NODE":353.4688,"ARG_OF_PERICENTER":95.7162,"MEAN_ANOMALY":264.4014,"EPHEMERIS_TYPE":0,"CLASSIFICATION_TYPE":"U","NORAD_CAT_ID":54202,"ELEMENT_SET_NO":999,"REV_AT_EPOCH":18601,"BSTAR":-2.0864165e-5,"MEAN_MOTION_DOT":-6.2e-6,"MEAN_MOTION_DDOT":0},{"OBJECT_NAME":"GB 2","OBJECT_ID":"1983-056D","EPOCH":"2026-03-09T14:43:25.991328","MEAN_MOTION":13.78053489,"ECCENTRICITY":0.0732375,"INCLINATION":63.3116,"RA_OF_ASC_NODE":172.1265,"ARG_OF_PERICENTER":130.2163,"MEAN_ANOMALY":236.5364,"EPHEMERIS_TYPE":0,"CLASSIFICATION_TYPE":"U","NORAD_CAT_ID":14144,"ELEMENT_SET_NO":999,"REV_AT_EPOCH":34222,"BSTAR":0.0006089,"MEAN_MOTION_DOT":4.982e-5,"MEAN_MOTION_DDOT":0}]
